OBJECT_NAME,OBJECT_ID,EPOCH,MEAN_MOTION,ECCENTRICITY,INCLINATION,RA_OF_ASC_NODE,ARG_OF_PERICENTER,MEAN_ANOMALY,EPHEMERIS_TYPE,CLASSIFICATION_TYPE,NORAD_CAT_ID,ELEMENT_SET_NO,REV_AT_EPOCH,BSTAR,MEAN_MOTION_DOT,MEAN_MOTION_DDOT
STARLINK-5413,2022-175BC,2024-09-23T05:14:46.422240,15.08841051,.0001493,53.2158,244.6469,96.9946,263.1216,0,U,54808,999,9995,.69101E-4,.812E-5,0
STARLINK-5414,2022-175BD,2024-09-23T08:52:35.516928,15.08849249,.0001428,53.2145,258.3496,92.4070,267.7085,0,U,54809,999,9977,.18941E-3,.2729E-4,0
STARLINK-5408,2022-175BE,2024-09-23T06:11:39.915168,15.08845739,.000141,53.2154,254.0685,95.1127,265.0026,0,U,54810,999,9982,.10593E-3,.1399E-4,0
STARLINK-5424,2022-175BF,2024-09-23T08:25:35.250816,15.08865701,.0001377,53.2157,253.9255,87.6898,272.4251,0,U,54811,999,9983,.77452E-3,.12069E-3,0
STARLINK-5382,2022-177A,2024-09-23T00:18:07.291296,15.02538940,.0001179,43.0017,148.0313,270.6432,89.4275,0,U,54820,999,9682,-.22445E-4,-.507E-5,0
STARLINK-5385,2022-177B,2024-09-23T09:34:54.336000,15.02547863,.000129,43.0033,145.7741,273.2737,86.7958,0,U,54821,999,9688,-.1177E-3,-.1794E-4,0
STARLINK-5101,2022-177C,2024-09-23T09:28:31.093248,15.02539055,.0001036,43.0017,145.7366,277.2421,82.8304,0,U,54822,999,9688,.29894E-4,.2E-5,0
STARLINK-5106,2022-177D,2024-09-23T00:13:19.754688,15.02538806,.000112,43.0027,148.0038,274.7937,85.2778,0,U,54823,999,9682,.54525E-4,.533E-5,0
STARLINK-4643,2022-177E,2024-09-22T22:32:48.402240,15.02544364,.0000874,43.0012,148.3392,281.0858,78.9886,0,U,54824,999,9583,-.62819E-4,-.1052E-4,0
STARLINK-4801,2022-177F,2024-09-23T09:33:19.975968,15.02529261,.0001417,43.0017,145.7622,262.0206,98.0476,0,U,54825,999,9688,.10089E-3,.1159E-4,0
STARLINK-5107,2022-177G,2024-09-23T09:30:06.918624,15.02542007,.000132,43.0019,145.7447,269.5704,90.4987,0,U,54826,999,9688,.13266E-3,.1589E-4,0
STARLINK-5383,2022-177H,2024-09-23T09:18:55.566432,15.02544929,.0001059,43.0019,145.6857,275.0264,85.0457,0,U,54827,999,9689,-.15066E-4,-.407E-5,0
STARLINK-5381,2022-177J,2024-09-23T09:14:07.801728,15.02537245,.0001393,43.0020,145.6623,270.4925,89.5758,0,U,54828,999,9688,.14679E-3,.178E-4,0
STARLINK-5394,2022-177L,2024-09-23T09:06:08.493408,15.02539668,.0000963,43.0041,145.6174,276.2782,83.7951,0,U,54830,999,9688,-.38454E-4,-.723E-5,0
STARLINK-5395,2022-177M,2024-09-23T09:23:43.417536,15.02539400,.0000838,43.0018,145.7101,280.6606,79.4142,0,U,54831,999,9688,-.15706E-4,-.416E-5,0
STARLINK-5393,2022-177N,2024-09-23T08:31:31.073664,15.02539058,.0001381,43.0038,133.3021,269.3251,90.7433,0,U,54832,999,9702,.12567E-3,.1494E-4,0
STARLINK-5391,2022-177P,2024-09-23T09:15:43.346304,15.02547187,.0001453,43.0000,145.6678,270.4286,89.6390,0,U,54833,999,9688,-.24859E-4,-.54E-5,0
STARLINK-5386,2022-177Q,2024-09-23T09:04:32.599776,15.02538973,.0001234,43.0024,145.6112,266.7639,93.3062,0,U,54834,999,9689,.38382E-4,.315E-5,0
STARLINK-5389,2022-177R,2024-09-23T09:10:55.592832,15.02548567,.0000919,43.0049,145.6423,276.5320,83.5418,0,U,54835,999,9688,.66405E-4,.694E-5,0
STARLINK-5384,2022-177S,2024-09-23T08:59:44.840256,15.02536353,.0001435,43.0051,145.5833,270.7640,89.3038,0,U,54836,999,9689,.11608E-3,.1365E-4,0
STARLINK-5369,2022-177T,2024-09-23T09:01:20.972352,15.02538397,.0001051,43.0027,145.5924,275.3845,84.6877,0,U,54837,999,9688,.52611E-4,.507E-5,0
STARLINK-5372,2022-177U,2024-09-23T08:50:09.245184,15.02542366,.000128,43.0024,145.5341,278.4110,81.6587,0,U,54838,999,9688,.36335E-4,.287E-5,0
STARLINK-5368,2022-177W,2024-09-23T08:37:22.051200,15.02541049,.0001096,43.0019,145.4668,265.1707,94.9010,0,U,54840,999,9688,-.83675E-6,-.215E-5,0
STARLINK-4659,2022-177X,2024-09-23T08:54:58.210848,15.02544974,.0001276,43.0017,145.5611,276.6334,83.4363,0,U,54841,999,9688,.149E-3,.181E-4,0
STARLINK-5387,2022-177Y,2024-09-23T08:27:46.541664,15.02541243,.0001343,43.0021,145.4174,267.5925,92.4763,0,U,54842,999,9688,.3809E-4,.311E-5,0
STARLINK-5304,2022-177Z,2024-09-23T08:45:21.448512,15.02544440,.0001082,43.0013,145.5090,279.8864,80.1856,0,U,54843,999,9688,-.20371E-4,-.479E-5,0
STARLINK-5388,2022-177AA,2024-09-23T08:21:22.828896,15.02540300,.000134,43.0036,145.3601,268.2930,91.7759,0,U,54844,999,9688,.13461E-3,.1615E-4,0
STARLINK-5082,2022-177AB,2024-09-23T08:32:34.445472,15.02541410,.0001316,43.0001,145.4422,272.7415,87.3277,0,U,54845,999,9688,.15537E-3,.1896E-4,0
STARLINK-5360,2022-177AC,2024-09-23T08:22:59.369664,15.02535399,.000141,43.0039,145.3914,264.9550,95.1131,0,U,54846,999,9688,.63956E-4,.66E-5,0
STARLINK-5061,2022-177AD,2024-09-23T15:24:59.062464,15.02544358,.0001315,43.0043,118.1386,261.7627,98.3066,0,U,54847,999,9722,.15796E-3,.1931E-4,0
STARLINK-5432,2022-177AE,2024-09-23T08:23:31.389504,15.02539843,.0001274,43.0015,133.2470,269.4609,90.6088,0,U,54848,999,9702,.14129E-3,.1706E-4,0
STARLINK-5434,2022-177AF,2024-09-23T00:19:33.017376,15.02535708,.000121,43.0028,147.1698,267.2777,92.7927,0,U,54849,999,9683,.231E-4,.108E-5,0
STARLINK-5087,2022-177AG,2024-09-23T08:17:08.502720,15.02536102,.0001057,43.0020,133.2108,272.2494,87.8227,0,U,54850,999,9702,.19287E-4,.57E-6,0
STARLINK-5084,2022-177AH,2024-09-23T08:21:55.672992,15.02542535,.0001105,43.0010,133.2363,273.9240,86.1476,0,U,54851,999,9702,-.27141E-4,-.57E-5,0
STARLINK-5418,2022-177AJ,2024-09-23T08:07:32.630304,15.02535468,.0001455,43.0051,133.1593,272.9752,87.0924,0,U,54852,999,9702,.10399E-3,.1201E-4,0
STARLINK-5427,2022-177AK,2024-09-23T08:12:20.072736,15.02539590,.000138,43.0029,133.1859,265.7039,94.3646,0,U,54853,999,9702,.18661E-3,.2318E-4,0
STARLINK-5419,2022-177AL,2024-09-23T07:59:32.762112,15.02554426,.0001139,43.0028,133.1180,277.5210,82.5503,0,U,54854,999,9702,-.11661E-3,-.1779E-4,0
STARLINK-5416,2022-177AM,2024-09-23T08:02:44.553696,15.02536990,.0001254,43.0018,133.1352,273.2152,86.8547,0,U,54855,999,9702,.89734E-4,.1009E-4,0
STARLINK-5086,2022-177AN,2024-09-23T07:33:58.523616,15.02544031,.0001625,43.0017,132.9843,263.9102,96.1555,0,U,54856,999,9702,.26044E-3,.3317E-4,0
STARLINK-5078,2022-177AP,2024-09-23T07:49:57.613728,15.02540792,.0001078,43.0026,133.0720,270.7690,89.3029,0,U,54857,999,9702,.19074E-4,.54E-6,0
STARLINK-5407,2022-177AQ,2024-09-23T07:53:09.216960,15.02540302,.0001207,43.0031,133.0827,274.2866,85.7839,0,U,54858,999,9702,.3572E-4,.279E-5,0
STARLINK-5409,2022-177AR,2024-09-23T07:38:46.370400,15.02542229,.0001454,43.0016,133.0120,267.0163,93.0513,0,U,54859,999,9702,.27628E-3,.3531E-4,0
STARLINK-5406,2022-177AS,2024-09-23T07:30:47.205504,15.02537128,.0001282,43.0029,132.9679,270.0898,89.9798,0,U,54860,999,9702,.81679E-4,.9E-5,0
STARLINK-5400,2022-177AT,2024-09-23T01:31:51.055968,15.02535273,.0001135,43.0020,134.5383,275.4600,84.6113,0,U,54861,999,9698,-.60559E-4,-.1021E-4,0
STARLINK-5403,2022-177AU,2024-09-23T00:29:40.863840,15.02539328,.0001096,43.0007,135.0899,269.9919,90.0797,0,U,54862,999,9697,.27413E-4,.167E-5,0
STARLINK-5405,2022-177AV,2024-09-23T07:43:34.208544,15.02539978,.0000987,43.0011,133.0336,275.0476,85.0254,0,U,54863,999,9702,-.23725E-4,-.524E-5,0
STARLINK-5359,2022-177AW,2024-09-23T01:03:04.456512,15.02538890,.0001397,43.0037,134.3859,273.6765,86.3918,0,U,54864,999,9698,-.2427E-4,-.532E-5,0
STARLINK-5411,2022-177AX,2024-09-23T07:48:21.814272,15.02536233,.0001549,43.0023,133.0610,269.9668,90.0997,0,U,54865,999,9702,.83652E-4,.926E-5,0
STARLINK-5398,2022-177AY,2024-09-23T00:48:41.472576,15.02535546,.0001364,43.0034,134.3139,268.2407,91.8279,0,U,54866,999,9698,.89658E-4,.1008E-4,0
STARLINK-5396,2022-177AZ,2024-09-23T15:27:47.952000,15.02562702,.0001203,43.0051,131.1581,249.3798,110.6915,0,U,54867,999,9707,.48457E-3,.6353E-4,0
STARLINK-5379,2022-177BA,2024-09-23T08:40:55.978464,15.02543361,.0001294,43.0033,132.4721,263.7910,96.2785,0,U,54868,999,9703,.9151E-4,.1033E-4,0
STARLINK-5402,2022-177BB,2024-09-23T15:18:14.114304,15.02539062,.0001548,43.0021,131.1029,269.4141,90.6524,0,U,54869,999,9707,.13281E-3,.1591E-4,0
STARLINK-5401,2022-177BC,2024-09-23T15:07:02.464896,15.02539146,.0001512,43.0039,131.0440,264.7627,95.3043,0,U,54870,999,9707,.76919E-4,.836E-5,0
STARLINK-5397,2022-177BD,2024-09-23T00:58:16.894848,15.02536738,.0001639,43.0032,134.3628,258.3798,101.6860,0,U,54871,999,9698,-.31974E-4,-.636E-5,0
STARLINK-5390,2022-177BE,2024-09-23T08:32:57.064992,15.02536977,.0001565,43.0030,132.4580,264.7062,95.3602,0,U,54872,999,9703,.10144E-3,.1167E-4,0
STARLINK-5091,2022-177BF,2024-09-23T08:36:08.371872,15.02540869,.0001671,43.0015,132.4476,269.4935,90.5716,0,U,54873,999,9703,.20445E-3,.2559E-4,0
STARLINK-5277,2023-010A,2024-09-23T11:27:47.592288,14.98337997,.0003081,69.9988,306.4349,269.3307,90.7499,0,U,55269,999,9334,.1287E-3,.1443E-4,0
STARLINK-5301,2023-010B,2024-09-23T11:45:49.271040,14.98350558,.0002727,69.9984,306.4798,270.9818,89.1029,0,U,55270,999,9306,-.30599E-3,-.3744E-4,0
STARLINK-5306,2023-010C,2024-09-23T11:33:48.282912,14.98333697,.0002957,69.9987,306.4500,268.8254,91.2566,0,U,55271,999,9306,.13495E-3,.1518E-4,0
STARLINK-5310,2023-010D,2024-09-23T11:52:02.004960,14.98348989,.000267,69.9985,306.1009,266.8452,93.2401,0,U,55272,999,9307,-.25026E-3,-.3079E-4,0
STARLINK-5291,2023-010E,2024-09-23T12:09:49.911552,14.98334923,.0003053,69.9978,306.1397,269.1853,90.8956,0,U,55273,999,9307,.19754E-3,.2265E-4,0
STARLINK-5236,2023-010F,2024-09-23T11:15:27.139968,14.98331588,.0003189,69.9978,286.5357,270.4285,89.6509,0,U,55274,999,9355,.61688E-4,.643E-5,0
STARLINK-5260,2023-010G,2024-09-23T11:03:40.305888,14.98325463,.0003136,69.9977,286.5077,271.7471,88.3329,0,U,55275,999,9355,.13961E-3,.1573E-4,0
STARLINK-5261,2023-010H,2024-09-23T11:03:26.255520,14.98325581,.0003031,69.9975,286.5066,271.5571,88.5241,0,U,55276,999,9354,.10066E-3,.1108E-4,0
STARLINK-5299,2023-010J,2024-09-23T11:15:48.970656,14.98306756,.0003005,69.9991,306.4048,269.7052,90.3763,0,U,55277,999,9306,-.12762E-3,-.1614E-4,0
STARLINK-5289,2023-010K,2024-09-23T12:27:51.949728,14.98337077,.0003228,69.9991,306.1784,271.0975,88.9814,0,U,55278,999,9306,.29186E-3,.3392E-4,0
